NORAD_CAT_ID,OBJECT_NAME,OBJECT_TYPE,EPOCH,MEAN_MOTION,ECCENTRICITY,INCLINATION,RA_OF_ASC_NODE,ARG_OF_PERICENTER,MEAN_ANOMALY,BSTAR,MEAN_MOTION_DOT,MEAN_MOTION_DDOT,TLE_LINE0,TLE_LINE1,TLE_LINE2,SEMIMAJOR_AXIS,PERIOD,APOGEE,PERIGEE,DECAYED
49149.0,STARLINK-3053,PAYLOAD,2022-03-05 04:00:01,14.98321406,0.0003356,70.002,29.5495,288.3939,343.8377,2.7284e-05,2.32e-06,0.0,0 STARLINK-3053,1 49149U 21082V   22064.16668981  .00000232  00000-0  27284-4 0  9993,2 49149  70.0020  29.5495 0003356 288.3939 343.8377 14.98321406 27665,6950.219,96.108,574.4169999999998,569.752,0.0
49149.0,STARLINK-3053,PAYLOAD,2022-03-05 06:00:00,14.98310709,0.0003348999999999,70.0021,29.3394,289.8773,71.663,0.0023586,0.00028149,0.0,0 STARLINK-3053,1 49149U 21082V   22064.25001157  .00028149  00000-0  23586-2 0  9995,2 49149  70.0021  29.3394 0003349 289.8773  71.6630 14.98310709  3583,6950.253000000002,96.108,574.445,569.79,0.0
49149.0,STARLINK-3053,PAYLOAD,2022-03-05 14:00:01,14.98341926,0.0003288,70.002,28.4991,288.3605,70.653,-0.0028756,-0.00034248,0.0,0 STARLINK-3053,1 49149U 21082V   22064.58334491 -.00034248  00000-0 -28756-2 0  9994,2 49149  70.0020  28.4991 0003288 288.3605  70.6530 14.98341926  3555,6950.156,96.106,574.306,569.736,0.0
49149.0,STARLINK-3053,PAYLOAD,2022-03-05 22:00:01,14.98345794,0.0003268,70.0023,27.6588,284.4171,72.1389,0.0001615,1.835e-05,0.0,0 STARLINK-3053,1 49149U 21082V   22064.91668981  .00001835  00000-0  16150-3 0  9995,2 49149  70.0023  27.6588 0003268 284.4171  72.1389 14.98345794  3583,6950.144,96.106,574.28,569.738,0.0
49149.0,STARLINK-3053,PAYLOAD,2022-03-06 06:00:00,14.983352800000002,0.0003368,70.0023,26.8184,290.146,63.8583,0.00083817,9.924e-05,0.0,0 STARLINK-3053,1 49149U 21082V   22065.25001157  .00009924  00000-0  83817-3 0  9990,2 49149  70.0023  26.8184 0003368 290.1460  63.8583 14.98335280 27827,6950.177,96.107,574.382,569.701,0.0
49149.0,STARLINK-3053,PAYLOAD,2022-03-06 14:00:01,14.98341628,0.0003326,70.0021,25.9781,288.1078,63.4012,-0.0032421,-0.00038578,0.0,0 STARLINK-3053,1 49149U 21082V   22065.58334491 -.00038578  00000-0 -32421-2 0  9999,2 49149  70.0021  25.9781 0003326 288.1078  63.4012 14.98341628  3565,6950.156999999997,96.106,574.3340000000002,569.71,0.0
49149.0,STARLINK-3053,PAYLOAD,2022-03-06 22:00:00,14.98344734,0.0003311,70.0023,25.1378,284.4719,64.5149,6.4018e-05,6.71e-06,0.0,0 STARLINK-3053,1 49149U 21082V   22065.91667824  .00000671  00000-0  64018-4 0  9995,2 49149  70.0023  25.1378 0003311 284.4719  64.5149 14.98344734  3582,6950.147,96.106,574.314,569.711,0.0
49149.0,STARLINK-3053,PAYLOAD,2022-03-07 04:00:00,14.98338604,0.0003366,70.0022,24.5075,289.4698,327.6449,-0.0011155999999999,-0.00013382,0.0,0 STARLINK-3053,1 49149U 21082V   22066.16667824 -.00013382  00000-0 -11156-2 0  9991,2 49149  70.0022  24.5075 0003366 289.4698 327.6449 14.98338604 27962,6950.166,96.106,574.371,569.692,0.0
49149.0,STARLINK-3053,PAYLOAD,2022-03-07 12:00:00,14.98345443,0.0003245,70.0019,23.667,290.0,324.601,-0.004535,-0.00053813,0.0,0 STARLINK-3053,1 49149U 21082V   22066.50001157 -.00053813  00000-0 -45350-2 0  9996,2 49149  70.0019  23.6670 0003245 290.0000 324.6010 14.98345443  3616,6950.145,96.106,574.265,569.755,0.0
49149.0,STARLINK-3053,PAYLOAD,2022-03-07 22:00:00,14.98334326,0.0003162,70.0023,22.6166,285.228,56.2001,-0.00039378,-4.789e-05,0.0,0 STARLINK-3053,1 49149U 21082V   22066.91667824 -.00004789  00000-0 -39378-3 0  9992,2 49149  70.0023  22.6166 0003162 285.2280  56.2001 14.98334326  3553,6950.18,96.107,574.242,569.847,0.0
49149.0,STARLINK-3053,PAYLOAD,2022-03-08 12:00:00,14.98353339,0.0003216,70.0017,21.1457,289.6724,317.3457,-0.0038711,-0.00046009,0.0,0 STARLINK-3053,1 49149U 21082V   22067.50001157 -.00046009  00000-0 -38711-2 0  9999,2 49149  70.0017  21.1457 0003216 289.6724 317.3457 14.98353339 28169,6950.121,96.106,574.221,569.751,0.0
49149.0,STARLINK-3053,PAYLOAD,2022-03-08 14:00:01,14.98334525,0.0003173,70.0019,20.9356,288.2731,48.124,-0.0012155,-0.00014568,0.0,0 STARLINK-3053,1 49149U 21082V   22067.58334491 -.00014568  00000-0 -12155-2 0  9996,2 49149  70.0019  20.9356 0003173 288.2731  48.1240 14.98334525  3585,6950.179,96.107,574.249,569.839,0.0
49149.0,STARLINK-3053,PAYLOAD,2022-03-08 20:00:01,14.983398499999998,0.000308,70.002,20.3053,284.3317,320.1731,-0.00074575,-8.982e-05,0.0,0 STARLINK-3053,1 49149U 21082V   22067.83334491 -.00008982  00000-0 -74575-3 0  9992,2 49149  70.0020  20.3053 0003080 284.3317 320.1731 14.98339850 28210,6950.1619999999975,96.106,574.168,569.887,0.0
49149.0,STARLINK-3053,PAYLOAD,2022-03-08 22:00:00,14.98359919,0.0003108,70.0022,20.0952,284.8603,49.0112,-0.0045478,-0.00053983,0.0,0 STARLINK-3053,1 49149U 21082V   22067.91667824 -.00053983  00000-0 -45478-2 0  9990,2 49149  70.0022  20.0952 0003108 284.8603  49.0112 14.98359919  3571,6950.1,96.105,574.125,569.805,0.0
49149.0,STARLINK-3053,PAYLOAD,2022-03-09 14:00:01,14.98317682,0.0003105,70.0018,18.4142,287.8557,40.9778,-0.00066003,-7.957e-05,0.0,0 STARLINK-3053,1 49149U 21082V   22068.58334491 -.00007957  00000-0 -66003-3 0  9993,2 49149  70.0018  18.4142 0003105 287.8557  40.9778 14.98317682  3597,6950.231,96.108,574.254,569.938,0.0
49149.0,STARLINK-3053,PAYLOAD,2022-03-09 22:00:01,14.98343272,0.0003098,70.0021,17.5738,284.5864,41.7681,-0.0012084,-0.00014487,0.0,0 STARLINK-3053,1 49149U 21082V   22068.91668981 -.00014487  00000-0 -12084-2 0  9999,2 49149  70.0021  17.5738 0003098 284.5864  41.7681 14.98343272  3572,6950.151999999999,96.106,574.17,569.864,0.0
49149.0,STARLINK-3053,PAYLOAD,2022-03-10 04:00:01,14.98317689,0.0003179,70.0019,16.9434,289.7197,304.7601,0.0017303,0.00020607,0.0,0 STARLINK-3053,1 49149U 21082V   22069.16668981  .00020607  00000-0  17303-2 0  9995,2 49149  70.0019  16.9434 0003179 289.7197 304.7601 14.98317689 28418,6950.231,96.108,574.305,569.886,0.0
49149.0,STARLINK-3053,PAYLOAD,2022-03-10 14:00:01,14.98329339,0.0003119,70.0018,15.8927,287.3173,33.9531,-4.7844e-05,-6.64e-06,0.0,0 STARLINK-3053,1 49149U 21082V   22069.58334491 -.00000664  00000-0 -47844-4 0  9995,2 49149  70.0018  15.8927 0003119 287.3173  33.9531 14.98329339  3561,6950.195,96.107,574.2280000000002,569.8919999999998,0.0
49149.0,STARLINK-3053,PAYLOAD,2022-03-10 22:00:01,14.98368787,0.0003083,70.0021,15.0523,284.8736,33.9345,-0.0055862,-0.00066188,0.0,0 STARLINK-3053,1 49149U 21082V   22069.91668981 -.00066188  00000-0 -55862-2 0  9996,2 49149  70.0021  15.0523 0003083 284.8736  33.9345 14.98368787  3570,6950.073,96.105,574.081,569.795,0.0
49149.0,STARLINK-3053,PAYLOAD,2022-03-11 04:00:00,14.98305284,0.0003078999999999,70.0019,14.4219,290.6934,296.1947,0.0022306,0.00026606,0.0,0 STARLINK-3053,1 49149U 21082V   22070.16667824  .00026606  00000-0  22306-2 0  9996,2 49149  70.0019  14.4219 0003079 290.6934 296.1947 14.98305284 28562,6950.269,96.109,574.274,569.994,0.0
49149.0,STARLINK-3053,PAYLOAD,2022-03-11 14:00:01,14.98321985,0.0002997,70.0019,13.3713,288.0101,25.7274,0.00086202,0.00010205,0.0,0 STARLINK-3053,1 49149U 21082V   22070.58334491  .00010205  00000-0  86202-3 0  9997,2 49149  70.0019  13.3713 0002997 288.0101  25.7274 14.98321985  3551,6950.218000000003,96.108,574.1659999999998,570.0,0.0
49149.0,STARLINK-3053,PAYLOAD,2022-03-11 20:00:01,14.9831769,0.0002895,70.0014,12.7458,285.2742,296.5448,0.00063976,7.546e-05,0.0,0 STARLINK-3053,1 49149U 21082V   22070.83334491  .00007546  00000-0  63976-3 0  9992,2 49149  70.0014  12.7458 0002895 285.2742 296.5448 14.98317690 28660,6950.231,96.108,574.1080000000002,570.0840000000002,0.0
49149.0,STARLINK-3053,PAYLOAD,2022-03-11 22:00:00,14.98340092,0.000297,70.0015,12.5367,286.1655,25.0142,-0.0033168,-0.00039457,0.0,0 STARLINK-3053,1 49149U 21082V   22070.91667824 -.00039457  00000-0 -33168-2 0  9997,2 49149  70.0015  12.5367 0002970 286.1655  25.0142 14.98340092  3565,6950.1619999999975,96.106,574.091,569.962,0.0
49149.0,STARLINK-3053,PAYLOAD,2022-03-12 14:00:01,14.98328202,0.0002853999999999,70.0019,10.8501,288.9264,17.2524,0.0016728,0.00019922,0.0,0 STARLINK-3053,1 49149U 21082V   22071.58334491  .00019922  00000-0  16728-2 0  9998,2 49149  70.0019  10.8501 0002854 288.9264  17.2524 14.98328202  3574,6950.198,96.107,574.047,570.08,0.0
49149.0,STARLINK-3053,PAYLOAD,2022-03-12 22:00:00,14.98345495,0.0003002,70.0022,10.0096,286.3419,17.3214,-0.0025281999999999,-0.00030142,0.0,0 STARLINK-3053,1 49149U 21082V   22071.91667824 -.00030142  00000-0 -25282-2 0  9998,2 49149  70.0022  10.0096 0003002 286.3419  17.3214 14.98345495  3580,6950.145,96.106,574.096,569.924,0.0
49149.0,STARLINK-3053,PAYLOAD,2022-03-13 04:00:00,14.98306072,0.0003067,70.0021,9.3793,292.2109,279.5731,0.0031,0.00037069,0.0,0 STARLINK-3053,1 49149U 21082V   22072.16667824  .00037069  00000-0  31000-2 0  9994,2 49149  70.0021   9.3793 0003067 292.2109 279.5731 14.98306072 28869,6950.267,96.109,574.264,570.0,0.0
49149.0,STARLINK-3053,PAYLOAD,2022-03-13 14:00:01,14.98313192,0.0002966,70.002,8.3287,288.3203,10.3072,0.0019846,0.00023657,0.0,0 STARLINK-3053,1 49149U 21082V   22072.58334491  .00023657  00000-0  19846-2 0  9993,2 49149  70.0020   8.3287 0002966 288.3203  10.3072 14.98313192  3574,6950.245,96.108,574.1709999999998,570.048,0.0
49149.0,STARLINK-3053,PAYLOAD,2022-03-13 22:00:01,14.98346326,0.0003103,70.0024,7.4881,288.5006,7.7057,-0.0024225,-0.00028891,0.0,0 STARLINK-3053,1 49149U 21082V   22072.91668981 -.00028891  00000-0 -24225-2 0  9998,2 49149  70.0024   7.4881 0003103 288.5006   7.7057 14.98346326  3584,6950.142,96.106,574.164,569.851,0.0
49149.0,STARLINK-3053,PAYLOAD,2022-03-14 04:00:00,14.98319549,0.0003194,70.0023,6.8578,293.5388,270.7379,0.003403,0.00040737,0.0,0 STARLINK-3053,1 49149U 21082V   22073.16667824  .00040737  00000-0  34030-2 0  9997,2 49149  70.0023   6.8578 0003194 293.5388 270.7379 14.98319549 29010,6950.225,96.108,574.31,569.87,0.0
